NORAD_CAT_ID,OBJECT_NAME,OBJECT_TYPE,EPOCH,MEAN_MOTION,ECCENTRICITY,INCLINATION,RA_OF_ASC_NODE,ARG_OF_PERICENTER,MEAN_ANOMALY,BSTAR,MEAN_MOTION_DOT,MEAN_MOTION_DDOT,TLE_LINE0,TLE_LINE1,TLE_LINE2,SEMIMAJOR_AXIS,PERIOD,APOGEE,PERIGEE,DECAYED
53893.0,STARLINK-5052,PAYLOAD,2024-02-15 21:21:57,15.08829262,0.0002038,53.2141,103.1342,99.5842,260.538,0.00024909,3.677e-05,0.0,0 STARLINK-5052,1 53893U 22119H   24046.89024491  .00003677  00000-0  24909-3 0  9996,2 53893  53.2141 103.1342 0002038  99.5842 260.5380 15.08829262 78046,6917.913,95.438,541.188,538.368,0.0
53893.0,STARLINK-5052,PAYLOAD,2024-02-16 03:43:29,15.08837465,0.0001709,53.2129,101.9433,107.5731,252.5448,0.00026126,3.872e-05,0.0,0 STARLINK-5052,1 53893U 22119H   24047.15520284  .00003872  00000-0  26126-3 0  9997,2 53893  53.2129 101.9433 0001709 107.5731 252.5448 15.08837465 77667,6917.888,95.438,540.935,538.571,0.0
53893.0,STARLINK-5052,PAYLOAD,2024-02-16 10:05:02,15.08848791,0.0001575,53.2154,100.7572,95.4952,264.622,0.00071959,0.00011186,0.0,0 STARLINK-5052,1 53893U 22119H   24047.42016248  .00011186  00000-0  71959-3 0  9998,2 53893  53.2154 100.7572 0001575  95.4952 264.6220 15.08848791 78125,6917.854,95.437,540.808,538.629,0.0
53893.0,STARLINK-5052,PAYLOAD,2024-02-17 03:34:16,15.08841313,0.0001519,53.215,97.4861,93.7747,266.3419,0.00023388,3.436e-05,0.0,0 STARLINK-5052,1 53893U 22119H   24048.14880451  .00003436  00000-0  23388-3 0  9995,2 53893  53.2150  97.4861 0001519  93.7747 266.3419 15.08841313 77812,6917.876,95.437,540.792,538.691,0.0
53893.0,STARLINK-5052,PAYLOAD,2024-02-17 09:55:49,15.08844796,0.0001551,53.2158,96.2974,98.3589,261.7579,0.0002941,4.396e-05,0.0,0 STARLINK-5052,1 53893U 22119H   24048.41376340  .00004396  00000-0  29410-3 0  9990,2 53893  53.2158  96.2974 0001551  98.3589 261.7579 15.08844796 78278,6917.866,95.437,540.804,538.658,0.0
53893.0,STARLINK-5052,PAYLOAD,2024-02-18 03:25:04,15.08834648,0.0001561,53.216,93.0248,96.4513,263.6657,3.2375e-06,-2.36e-06,0.0,0 STARLINK-5052,1 53893U 22119H   24049.14240777 -.00000236  00000-0  32375-5 0  9991,2 53893  53.2160  93.0248 0001561  96.4513 263.6657 15.08834648 77965,6917.897,95.438,540.842,538.682,0.0
53893.0,STARLINK-5052,PAYLOAD,2024-02-18 09:46:36,15.08839791,0.0001652,53.2166,91.8402,95.5024,264.6157,8.9467e-05,1.136e-05,0.0,0 STARLINK-5052,1 53893U 22119H   24049.40736705  .00001136  00000-0  89467-4 0  9993,2 53893  53.2166  91.8402 0001652  95.5024 264.6157 15.08839791 78429,6917.881,95.438,540.889,538.603,0.0
53893.0,STARLINK-5052,PAYLOAD,2024-02-18 19:18:55,15.0883393,0.0001453,53.216,90.0557,90.9835,269.1324,1.4645e-06,-2.65e-06,0.0,0 STARLINK-5052,1 53893U 22119H   24049.80481084 -.00000265  00000-0  14645-5 0  9994,2 53893  53.2160  90.0557 0001453  90.9835 269.1324 15.08833930 78484,6917.899,95.438,540.769,538.759,0.0
53893.0,STARLINK-5052,PAYLOAD,2024-02-19 09:37:24,15.08829804,0.0001629,53.2173,87.381,106.1468,253.9703,3.6296e-05,2.9e-06,0.0,0 STARLINK-5052,1 53893U 22119H   24050.40097952  .00000290  00000-0  36296-4 0  9991,2 53893  53.2173  87.3810 0001629 106.1468 253.9703 15.08829804 78157,6917.912,95.438,540.903,538.65,0.0
53893.0,STARLINK-5052,PAYLOAD,2024-02-19 19:09:42,15.08840875,0.0001669,53.2181,85.5964,101.5365,258.5815,3.8815e-05,3.3e-06,0.0,0 STARLINK-5052,1 53893U 22119H   24050.79841363  .00000330  00000-0  38815-4 0  9990,2 53893  53.2181  85.5964 0001669 101.5365 258.5815 15.08840875 78218,6917.878,95.437,540.897,538.588,0.0
53893.0,STARLINK-5052,PAYLOAD,2024-02-20 11:03:33,15.08850533,0.0001604,53.2172,82.6215,93.9712,266.1464,0.00022293,3.263e-05,0.0,0 STARLINK-5052,1 53893U 22119H   24051.46080503  .00003263  00000-0  22293-3 0  9996,2 53893  53.2172  82.6215 0001604  93.9712 266.1464 15.08850533 78312,6917.848,95.437,540.823,538.604,0.0
53893.0,STARLINK-5052,PAYLOAD,2024-02-20 19:00:29,15.0884395,0.0002072,53.2173,81.1319,87.6016,272.5213,7.717e-05,9.4e-06,0.0,0 STARLINK-5052,1 53893U 22119H   24051.79201111  .00000940  00000-0  77170-4 0  9996,2 53893  53.2173  81.1319 0002072  87.6016 272.5213 15.08843950 78362,6917.868,95.437,541.167,538.3,0.0
53893.0,STARLINK-5052,PAYLOAD,2024-02-21 09:18:57,15.08847156,0.0001669,53.2166,78.4573,90.4011,269.7173,0.00015235,2.138e-05,0.0,0 STARLINK-5052,1 53893U 22119H   24052.38816848  .00002138  00000-0  15235-3 0  9995,2 53893  53.2166  78.4573 0001669  90.4011 269.7173 15.08847156 78874,6917.859,95.437,540.878,538.569,0.0
53893.0,STARLINK-5052,PAYLOAD,2024-02-22 01:12:49,15.08844053,0.0001716,53.2164,75.4854,91.9536,268.1653,-1.0457e-05,-4.55e-06,0.0,0 STARLINK-5052,1 53893U 22119H   24053.05056877 -.00000455  00000-0 -10457-4 0  9992,2 53893  53.2164  75.4854 0001716  91.9536 268.1653 15.08844053 78556,6917.868,95.437,540.92,538.546,0.0
53893.0,STARLINK-5052,PAYLOAD,2024-02-22 10:45:07,15.08850388,0.0001483,53.2171,73.6978,96.7,263.4161,2.8306e-06,-2.43e-06,0.0,0 STARLINK-5052,1 53893U 22119H   24053.44800680 -.00000243  00000-0  28306-5 0  9991,2 53893  53.2171  73.6978 0001483  96.7000 263.4161 15.08850388 79035,6917.849,95.437,540.74,538.688,0.0
53893.0,STARLINK-5052,PAYLOAD,2024-02-22 18:42:03,15.08848405,0.0001501,53.217,72.2111,94.1697,265.9467,-2.0157e-05,-6.09e-06,0.0,0 STARLINK-5052,1 53893U 22119H   24053.77920714 -.00000609  00000-0 -20157-4 0  9990,2 53893  53.2170  72.2111 0001501  94.1697 265.9467 15.08848405 79081,6917.855,95.437,540.758,538.681,0.0
53893.0,STARLINK-5052,PAYLOAD,2024-02-23 07:25:08,15.08841005,0.0001247,53.2171,69.8317,97.0701,263.0433,0.00017218,2.454e-05,0.0,0 STARLINK-5052,1 53893U 22119H   24054.30912737  .00002454  00000-0  17218-3 0  9997,2 53893  53.2171  69.8317 0001247  97.0701 263.0433 15.08841005 78740,6917.877,95.437,540.605,538.88,0.0
53893.0,STARLINK-5052,PAYLOAD,2024-02-23 18:32:50,15.08843301,0.0001484,53.2168,67.7496,94.2403,265.8759,2.593e-05,1.25e-06,0.0,0 STARLINK-5052,1 53893U 22119H   24054.77280832  .00000125  00000-0  25930-4 0  9996,2 53893  53.2168  67.7496 0001484  94.2403 265.8759 15.08843301 79239,6917.87,95.437,540.762,538.709,0.0
53893.0,STARLINK-5052,PAYLOAD,2024-02-24 04:05:10,15.08835525,0.0001524,53.2171,65.9661,92.852,267.2646,4.807e-06,-2.11e-06,0.0,0 STARLINK-5052,1 53893U 22119H   24055.17025501 -.00000211  00000-0  48070-5 0  9999,2 53893  53.2171  65.9661 0001524  92.8520 267.2646 15.08835525 78875,6917.894,95.438,540.813,538.705,0.0
53893.0,STARLINK-5052,PAYLOAD,2024-02-24 07:15:56,15.08835595,0.0001517,53.2172,65.3723,88.6869,271.4297,3.6874e-05,2.99e-06,0.0,0 STARLINK-5052,1 53893U 22119H   24055.30273477  .00000299  00000-0  36874-4 0  9994,2 53893  53.2172  65.3723 0001517  88.6869 271.4297 15.08835595 79316,6917.894,95.438,540.808,538.709,0.0
53893.0,STARLINK-5052,PAYLOAD,2024-02-25 03:55:56,15.08845488,0.0001683,53.2187,61.507,89.6741,270.4444,7.6793e-05,9.34e-06,0.0,0 STARLINK-5052,1 53893U 22119H   24056.16384838  .00000934  00000-0  76793-4 0  9993,2 53893  53.2187  61.5070 0001683  89.6741 270.4444 15.08845488 79022,6917.864,95.437,540.893,538.564,0.0
53893.0,STARLINK-5052,PAYLOAD,2024-02-25 07:06:42,15.08850179,0.0001717,53.2186,60.9121,89.9652,270.1537,7.576e-05,9.18e-06,0.0,0 STARLINK-5052,1 53893U 22119H   24056.29632477  .00000918  00000-0  75760-4 0  9997,2 53893  53.2186  60.9121 0001717  89.9652 270.1537 15.08850179 79464,6917.849,95.437,540.902,538.526,0.0
53893.0,STARLINK-5052,PAYLOAD,2024-02-25 16:39:01,15.08848116,0.000166,53.2184,59.1284,90.7061,269.4121,1.4153e-05,-6.3e-07,0.0,0 STARLINK-5052,1 53893U 22119H   24056.69376689 -.00000063  00000-0  14153-4 0  9992,2 53893  53.2184  59.1284 0001660  90.7061 269.4121 15.08848116 79528,6917.856,95.437,540.869,538.572,0.0
53893.0,STARLINK-5052,PAYLOAD,2024-02-26 03:46:43,15.08839556,0.0001654,53.2182,57.049,85.6202,274.4979,0.0001491,2.086e-05,0.0,0 STARLINK-5052,1 53893U 22119H   24057.15745063  .00002086  00000-0  14910-3 0  9996,2 53893  53.2182  57.0490 0001654  85.6202 274.4979 15.08839556 79171,6917.882,95.438,540.891,538.603,0.0
53893.0,STARLINK-5052,PAYLOAD,2024-02-26 06:57:29,15.0884419,0.0001693,53.2186,56.4534,92.0778,268.0408,0.00013669,1.888e-05,0.0,0 STARLINK-5052,1 53893U 22119H   24057.28992789  .00001888  00000-0  13669-3 0  9998,2 53893  53.2186  56.4534 0001693  92.0778 268.0408 15.08844190 79615,6917.868,95.437,540.904,538.561,0.0
53893.0,STARLINK-5052,PAYLOAD,2024-02-27 03:37:31,15.08835371,0.0001808,53.2187,52.5862,101.6063,258.5132,-5.0577e-05,-1.093e-05,0.0,0 STARLINK-5052,1 53893U 22119H   24058.15105922 -.00001093  00000-0 -50577-4 0  9990,2 53893  53.2187  52.5862 0001808 101.6063 258.5132 15.08835371 79326,6917.895,95.438,541.01,538.509,0.0
53893.0,STARLINK-5052,PAYLOAD,2024-02-27 06:48:17,15.08834428,0.0001841,53.2192,51.9929,101.8724,258.2475,-5.8249e-05,-1.215e-05,0.0,0 STARLINK-5052,1 53893U 22119H   24058.28354019 -.00001215  00000-0 -58249-4 0  9997,2 53893  53.2192  51.9929 0001841 101.8724 258.2475 15.08834428 79769,6917.897,95.438,541.036,538.489,0.0
53893.0,STARLINK-5052,PAYLOAD,2024-02-27 22:42:09,15.08832008,0.0001595,53.2188,49.0172,98.7196,261.3976,2.7925e-05,1.56e-06,0.0,0 STARLINK-5052,1 53893U 22119H   24058.94594112  .00000156  00000-0  27925-4 0  9998,2 53893  53.2188  49.0172 0001595  98.7196 261.3976 15.08832008 79869,6917.905,95.438,540.873,538.666,0.0
53893.0,STARLINK-5052,PAYLOAD,2024-02-28 06:39:04,15.08840595,0.000168,53.2184,47.531,94.0092,266.1093,1.7158e-05,-1.5e-07,0.0,0 STARLINK-5052,1 53893U 22119H   24059.27713698 -.00000015  00000-0  17158-4 0  9999,2 53893  53.2184  47.5310 0001680  94.0092 266.1093 15.08840595 79493,6917.879,95.438,540.906,538.581,0.0
53893.0,STARLINK-5052,PAYLOAD,2024-02-28 22:32:56,15.08834092,0.0001604,53.2177,44.5566,84.9077,275.2098,8.5197e-05,1.068e-05,0.0,0 STARLINK-5052,1 53893U 22119H   24059.93954059  .00001068  00000-0  85197-4 0  9996,2 53893  53.2177  44.5566 0001604  84.9077 275.2098 15.08834092 80013,6917.898,95.438,540.873,538.654,0.0
